{"type": "FeatureCollection", "features": [ {"type": "Feature", "properties": {"norad_id": 38779, "name": "GSAT-10 (GAGAN/PRN 128)", "group": "gnss", "lat": -0.04556410683495083, "lon": 134.72876890337656, "alt_km": 35775.5277349043, "timestamp": "2025-12-17T21:39:45.932860+00:00", "meta": {"OBJECT_NAME": "GSAT-10 (GAGAN/PRN 128)", "OBJECT_ID": "2012-051B", "EPOCH": "2025-12-17T13:43:12.779616", "MEAN_MOTION": 1.00272657, "ECCENTRICITY": 0.00024853, "INCLINATION": 0.0791, "RA_OF_ASC_NODE": 265.7445, "ARG_OF_PERICENTER": 219.6941, "MEAN_ANOMALY": 249.8322, "EPHEMERIS_TYPE": 0, "CLASSIFICATION_TYPE": "U", "NORAD_CAT_ID": 38779, "ELEMENT_SET_NO": 999, "REV_AT_EPOCH": 4827, "BSTAR": 0, "MEAN_MOTION_DOT": -1.4e-06, "MEAN_MOTION_DDOT": 0}, "tle": {"line1": "1 38779U 12051B   25351.57167569 -.00000140  00000+0  00000+0 0  9999", "line2": "2 38779   0.0791 265.7445 0002485 219.6941 249.8322  1.00272657 48278"}}, "geometry": {"type": "Point", "coordinates": [134.72876890337656, -0.04556410683495083]}}, {"type": "Feature", "properties": {"norad_id": 38833, "name": "GPS BIIF-3  (PRN 24)", "group": "gnss", "lat": 37.20151700389132, "lon": -174.85645737030947, "alt_km": 19726.485697446573, "timestamp": "2025-12-17T21:39:45.932871+00:00", "meta": {"OBJECT_NAME": "GPS BIIF-3  (PRN 24)", "OBJECT_ID": "2012-053A", "EPOCH": "2025-12-16T20:09:13.627584", "MEAN_MOTION": 2.00565075, "ECCENTRICITY": 0.01759464, "INCLINATION": 53.5585, "RA_OF_ASC_NODE": 151.0706, "ARG_OF_PERICENTER": 64.0575, "MEAN_ANOMALY": 297.7402, "EPHEMERIS_TYPE": 0, "CLASSIFICATION_TYPE": "U", "NORAD_CAT_ID": 38833, "ELEMENT_SET_NO": 999, "REV_AT_EPOCH": 9578, "BSTAR": 0, "MEAN_MOTION_DOT": 7.2e-07, "MEAN_MOTION_DDOT": 0}, "tle": {"line1": "1 38833U 12053A   25350.83974106  .00000072  00000+0  00000+0 0  9996", "line2": "2 38833  53.5585 151.0706 0175946  64.0575 297.7402  2.00565075 95787"}}, "geometry": {"type": "Point", "coordinates": [-174.85645737030947, 37.20151700389132]}}, {"type": "Feature", "properties": {"norad_id": 38857, "name": "GSAT0103 (GALILEO-FM3)", "group": "gnss", "lat": 12.31991888231794, "lon": -82.05222188176167, "alt_km": 23222.80821208625, "timestamp": "2025-12-17T21:39:45.932881+00:00", "meta": {"OBJECT_NAME": "GSAT0103 (GALILEO-FM3)", "OBJECT_ID": "2012-055A", "EPOCH": "2025-12-13T12:39:44.093088", "MEAN_MOTION": 1.70473367, "ECCENTRICITY": 0.00026827, "INCLINATION": 55.6929, "RA_OF_ASC_NODE": 106.6448, "ARG_OF_PERICENTER": 268.8486, "MEAN_ANOMALY": 91.0883, "EPHEMERIS_TYPE": 0, "CLASSIFICATION_TYPE": "U", "NORAD_CAT_ID": 38857, "ELEMENT_SET_NO": 999, "REV_AT_EPOCH": 8184, "BSTAR": 0, "MEAN_MOTION_DOT": 1e-08, "MEAN_MOTION_DDOT": 0}, "tle": {"line1": "1 38857U 12055A   25347.52759367  .00000001  00000+0  00000+0 0  9998", "line2": "2 38857  55.6929 106.6448 0002682 268.8486  91.0883  1.70473367 81846"}}, "geometry": {"type": "Point", "coordinates": [-82.05222188176167, 12.31991888231794]}}, {"type": "Feature", "properties": {"norad_id": 38953, "name": "BEIDOU-2 G6 (C02)", "group": "gnss", "lat": 3.4561103749398816, "lon": 135.69142228265548, "alt_km": 35807.568295991034, "timestamp": "2025-12-17T21:39:45.932891+00:00", "meta": {"OBJECT_NAME": "BEIDOU-2 G6 (C02)", "OBJECT_ID": "2012-059A", "EPOCH": "2025-12-17T15:26:17.909376", "MEAN_MOTION": 1.00269348, "ECCENTRICITY": 0.00081325, "INCLINATION": 3.9614, "RA_OF_ASC_NODE": 75.4585, "ARG_OF_PERICENTER": 291.6249, "MEAN_ANOMALY": 34.9806, "EPHEMERIS_TYPE": 0, "CLASSIFICATION_TYPE": "U", "NORAD_CAT_ID": 38953, "ELEMENT_SET_NO": 999, "REV_AT_EPOCH": 4808, "BSTAR": 0, "MEAN_MOTION_DOT": -1.53e-06, "MEAN_MOTION_DDOT": 0}, "tle": {"line1": "1 38953U 12059A   25351.64326284 -.00000153  00000+0  00000+0 0  9994", "line2": "2 38953   3.9614  75.4585 0008132 291.6249  34.9806  1.00269348 48087"}}, "geometry": {"type": "Point", "coordinates": [135.69142228265548, 3.4561103749398816]}}, {"type": "Feature", "properties": {"norad_id": 38977, "name": "LUCH 5B (SDCM/PRN 125)", "group": "gnss", "lat": -2.7984474451790264, "lon": 35.654686958202944, "alt_km": 35810.79851351246, "timestamp": "2025-12-17T21:39:45.932904+00:00", "meta": {"OBJECT_NAME": "LUCH 5B (SDCM/PRN 125)", "OBJECT_ID": "2012-061A", "EPOCH": "2025-12-17T09:49:28.621056", "MEAN_MOTION": 1.00272466, "ECCENTRICITY": 0.00067382, "INCLINATION": 10.0912, "RA_OF_ASC_NODE": 51.6616, "ARG_OF_PERICENTER": 194.426, "MEAN_ANOMALY": 331.2355, "EPHEMERIS_TYPE": 0, "CLASSIFICATION_TYPE": "U", "NORAD_CAT_ID": 38977, "ELEMENT_SET_NO": 999, "REV_AT_EPOCH": 4778, "BSTAR": 0, "MEAN_MOTION_DOT": -1.22e-06, "MEAN_MOTION_DDOT": 0}, "tle": {"line1": "1 38977U 12061A   25351.40935904 -.00000122  00000+0  00000+0 0  9998", "line2": "2 38977  10.0912  51.6616 0006738 194.4260 331.2355  1.00272466 47780"}}, "geometry": {"type": "Point", "coordinates": [35.654686958202944, -2.7984474451790264]}}, {"type": "Feature", "properties": {"norad_id": 39155, "name": "COSMOS 2485 (747)", "group": "gnss", "lat": 64.5081762365155, "lon": -174.63426147377834, "alt_km": 19166.043149052188, "timestamp": "2025-12-17T21:39:45.932915+00:00", "meta": {"OBJECT_NAME": "COSMOS 2485 (747)", "OBJECT_ID": "2013-019A", "EPOCH": "2025-12-17T07:21:50.321088", "MEAN_MOTION": 2.13103137, "ECCENTRICITY": 0.00247401, "INCLINATION": 65.3162, "RA_OF_ASC_NODE": 79.7134, "ARG_OF_PERICENTER": 229.9478, "MEAN_ANOMALY": 129.8522, "EPHEMERIS_TYPE": 0, "CLASSIFICATION_TYPE": "U", "NORAD_CAT_ID": 39155, "ELEMENT_SET_NO": 999, "REV_AT_EPOCH": 9840, "BSTAR": 0, "MEAN_MOTION_DOT": -4.8e-07, "MEAN_MOTION_DDOT": 0}, "tle": {"line1": "1 39155U 13019A   25351.30683242 -.00000048  00000+0  00000+0 0  9992", "line2": "2 39155  65.3162  79.7134 0024740 229.9478 129.8522  2.13103137 98408"}}, "geometry": {"type": "Point", "coordinates": [-174.63426147377834, 64.5081762365155]}}, {"type": "Feature", "properties": {"norad_id": 39166, "name": "GPS BIIF-4  (PRN 27)", "group": "gnss", "lat": 25.29913559085293, "lon": 76.76810570665826, "alt_km": 20236.92461235941, "timestamp": "2025-12-17T21:39:45.932925+00:00", "meta": {"OBJECT_NAME": "GPS BIIF-4  (PRN 27)", "OBJECT_ID": "2013-023A", "EPOCH": "2025-12-15T04:59:33.811872", "MEAN_MOTION": 2.00564736, "ECCENTRICITY": 0.01378529, "INCLINATION": 54.65, "RA_OF_ASC_NODE": 276.4679, "ARG_OF_PERICENTER": 48.4851, "MEAN_ANOMALY": 312.7012, "EPHEMERIS_TYPE": 0, "CLASSIFICATION_TYPE": "U", "NORAD_CAT_ID": 39166, "ELEMENT_SET_NO": 999, "REV_AT_EPOCH": 9219, "BSTAR": 0, "MEAN_MOTION_DOT": -6.8e-07, "MEAN_MOTION_DDOT": 0}, "tle": {"line1": "1 39166U 13023A   25349.20803023 -.00000068  00000+0  00000+0 0  9998", "line2": "2 39166  54.6500 276.4679 0137852  48.4851 312.7012  2.00564736 92194"}}, "geometry": {"type": "Point", "coordinates": [76.76810570665826, 25.29913559085293]}}, {"type": "Feature", "properties": {"norad_id": 39199, "name": "IRNSS-1A", "group": "gnss", "lat": 21.855049931724114, "lon": 100.92147160027065, "alt_km": 35881.16440502497, "timestamp": "2025-12-17T21:39:45.932935+00:00", "meta": {"OBJECT_NAME": "IRNSS-1A", "OBJECT_ID": "2013-034A", "EPOCH": "2025-12-16T18:45:30.034368", "MEAN_MOTION": 1.00271882, "ECCENTRICITY": 0.0023621, "INCLINATION": 35.3115, "RA_OF_ASC_NODE": 66.4956, "ARG_OF_PERICENTER": 207.6795, "MEAN_ANOMALY": 147.7415, "EPHEMERIS_TYPE": 0, "CLASSIFICATION_TYPE": "U", "NORAD_CAT_ID": 39199, "ELEMENT_SET_NO": 999, "REV_AT_EPOCH": 4553, "BSTAR": 0, "MEAN_MOTION_DOT": 6.3e-07, "MEAN_MOTION_DDOT": 0}, "tle": {"line1": "1 39199U 13034A   25350.78159762  .00000063  00000+0  00000+0 0  9999", "line2": "2 39199  35.3115  66.4956 0023621 207.6795 147.7415  1.00271882 45532"}}, "geometry": {"type": "Point", "coordinates": [100.92147160027065, 21.855049931724114]}}, {"type": "Feature", "properties": {"norad_id": 39533, "name": "GPS BIIF-5  (PRN 30)", "group": "gnss", "lat": 24.731011925170364, "lon": -43.14591186016077, "alt_km": 20132.654742953026, "timestamp": "2025-12-17T21:39:45.932945+00:00", "meta": {"OBJECT_NAME": "GPS BIIF-5  (PRN 30)", "OBJECT_ID": "2014-008A", "EPOCH": "2025-12-17T04:42:21.782016", "MEAN_MOTION": 2.00574699, "ECCENTRICITY": 0.00793343, "INCLINATION": 53.632, "RA_OF_ASC_NODE": 156.7429, "ARG_OF_PERICENTER": 226.5757, "MEAN_ANOMALY": 132.7662, "EPHEMERIS_TYPE": 0, "CLASSIFICATION_TYPE": "U", "NORAD_CAT_ID": 39533, "ELEMENT_SET_NO": 999, "REV_AT_EPOCH": 8603, "BSTAR": 0, "MEAN_MOTION_DOT": 7.8e-07, "MEAN_MOTION_DDOT": 0}, "tle": {"line1": "1 39533U 14008A   25351.19608544  .00000078  00000+0  00000+0 0  9992", "line2": "2 39533  53.6320 156.7429 0079334 226.5757 132.7662  2.00574699 86034"}}, "geometry": {"type": "Point", "coordinates": [-43.14591186016077, 24.731011925170364]}}, {"type": "Feature", "properties": {"norad_id": 39617, "name": "ASTRA 5B (EGNOS/PRN 123)", "group": "gnss", "lat": 0.06953998045855493, "lon": 75.21971941071384, "alt_km": 35802.77923561509, "timestamp": "2025-12-17T21:39:45.932955+00:00", "meta": {"OBJECT_NAME": "ASTRA 5B (EGNOS/PRN 123)", "OBJECT_ID": "2014-011B", "EPOCH": "2025-12-17T13:26:14.406144", "MEAN_MOTION": 1.00270254, "ECCENTRICITY": 0.00038591, "INCLINATION": 0.0434, "RA_OF_ASC_NODE": 350.6308, "ARG_OF_PERICENTER": 268.5135, "MEAN_ANOMALY": 52.3671, "EPHEMERIS_TYPE": 0, "CLASSIFICATION_TYPE": "U", "NORAD_CAT_ID": 39617, "ELEMENT_SET_NO": 999, "REV_AT_EPOCH": 4284, "BSTAR": 0, "MEAN_MOTION_DOT": 1.62e-06, "MEAN_MOTION_DDOT": 0}, "tle": {"line1": "1 39617U 14011B   25351.55988896  .00000162  00000+0  00000+0 0  9994", "line2": "2 39617   0.0434 350.6308 0003859 268.5135  52.3671  1.00270254 42842"}}, "geometry": {"type": "Point", "coordinates": [75.21971941071384, 0.06953998045855493]}}]}